[
    {
        "Altitude(m)": 555450.6381705689,
        "Argument of Periapsis(deg)": 0.013245982221427002,
        "Eccentricity": 0.0,
        "Inclination(deg)": 53.0,
        "Latitude(deg)": -7.213714021117329,
        "Longitude(deg)": 57.98018967367883,
        "Mean Anomaly(deg)": -8.907714264844865,
        "RAAN(deg)": 164.98028673705602,
        "Satellite Name": "Starlink Shell 1 746",
        "Satellite Number": 746,
        "Semi-Major Axis(m)": 6931778.249405717,
        "Time(s)": 380
    },
    {
        "Altitude(m)": 555347.9026741469,
        "Argument of Periapsis(deg)": 0.013594560700938237,
        "Eccentricity": 0.0,
        "Inclination(deg)": 53.0,
        "Latitude(deg)": -6.712113496997127,
        "Longitude(deg)": 58.32102197620399,
        "Mean Anomaly(deg)": -8.280883061288117,
        "RAAN(deg)": 164.97976796697856,
        "Satellite Name": "Starlink Shell 1 746",
        "Satellite Number": 746,
        "Semi-Major Axis(m)": 6931778.249405717,
        "Time(s)": 390
    },
    {
        "Altitude(m)": 555247.739232661,
        "Argument of Periapsis(deg)": 0.013943139180449475,
        "Eccentricity": 0.0,
        "Inclination(deg)": 53.0,
        "Latitude(deg)": -6.210193729485406,
        "Longitude(deg)": 58.661082207584315,
        "Mean Anomaly(deg)": -7.654051857731447,
        "RAAN(deg)": 164.97924919690107,
        "Satellite Name": "Starlink Shell 1 746",
        "Satellite Number": 746,
        "Semi-Major Axis(m)": 6931778.249405717,
        "Time(s)": 400
    },
    {
        "Altitude(m)": 555150.17289906,
        "Argument of Periapsis(deg)": 0.014291717659960712,
        "Eccentricity": 0.0,
        "Inclination(deg)": 53.0,
        "Latitude(deg)": -5.707978537054168,
        "Longitude(deg)": 59.00043040846643,
        "Mean Anomaly(deg)": -7.027220654174702,
        "RAAN(deg)": 164.9787304268236,
        "Satellite Name": "Starlink Shell 1 746",
        "Satellite Number": 746,
        "Semi-Major Axis(m)": 6931778.249405717,
        "Time(s)": 410
    },
    {
        "Altitude(m)": 555055.2274373706,
        "Argument of Periapsis(deg)": 0.014640296139471948,
        "Eccentricity": 0.0,
        "Inclination(deg)": 53.0,
        "Latitude(deg)": -5.2054915945372775,
        "Longitude(deg)": 59.339125807759515,
        "Mean Anomaly(deg)": -6.400389450617928,
        "RAAN(deg)": 164.97821165674614,
        "Satellite Name": "Starlink Shell 1 746",
        "Satellite Number": 746,
        "Semi-Major Axis(m)": 6931778.249405717,
        "Time(s)": 420
    },
    {
        "Altitude(m)": 554962.9253135733,
        "Argument of Periapsis(deg)": 0.014988874618983185,
        "Eccentricity": 0.0,
        "Inclination(deg)": 53.0,
        "Latitude(deg)": -4.702756445570444,
        "Longitude(deg)": 59.67722735258729,
        "Mean Anomaly(deg)": -5.773558247061259,
        "RAAN(deg)": 164.97769288666865,
        "Satellite Name": "Starlink Shell 1 746",
        "Satellite Number": 746,
        "Semi-Major Axis(m)": 6931778.249405717,
        "Time(s)": 430
    },
    {
        "Altitude(m)": 554873.2876871364,
        "Argument of Periapsis(deg)": 0.015337453098494424,
        "Eccentricity": 0.0,
        "Inclination(deg)": 53.0,
        "Latitude(deg)": -4.199796514904861,
        "Longitude(deg)": 60.01479423816978,
        "Mean Anomaly(deg)": -5.146727043504512,
        "RAAN(deg)": 164.9771741165912,
        "Satellite Name": "Starlink Shell 1 746",
        "Satellite Number": 746,
        "Semi-Major Axis(m)": 6931778.249405717,
        "Time(s)": 440
    },
    {
        "Altitude(m)": 554786.3344031981,
        "Argument of Periapsis(deg)": 0.01568603157800566,
        "Eccentricity": 0.0,
        "Inclination(deg)": 53.0,
        "Latitude(deg)": -3.6966351206083847,
        "Longitude(deg)": 60.35188492476582,
        "Mean Anomaly(deg)": -4.519895839947868,
        "RAAN(deg)": 164.97665534651372,
        "Satellite Name": "Starlink Shell 1 746",
        "Satellite Number": 746,
        "Semi-Major Axis(m)": 6931778.249405717,
        "Time(s)": 450
    },
    {
        "Altitude(m)": 554702.0839854066,
        "Argument of Periapsis(deg)": 0.0160346100575169,
        "Eccentricity": 0.0,
        "Inclination(deg)": 53.0,
        "Latitude(deg)": -3.193295486160698,
        "Longitude(deg)": 60.68855766743019,
        "Mean Anomaly(deg)": -3.8930646363910957,
        "RAAN(deg)": 164.97613657643623,
        "Satellite Name": "Starlink Shell 1 746",
        "Satellite Number": 746,
        "Semi-Major Axis(m)": 6931778.249405717,
        "Time(s)": 460
    },
    {
        "Altitude(m)": 554620.5536294131,
        "Argument of Periapsis(deg)": 0.016383188537028134,
        "Eccentricity": 0.0,
        "Inclination(deg)": 53.0,
        "Latitude(deg)": -2.6898007524578773,
        "Longitude(deg)": 61.024871045715,
        "Mean Anomaly(deg)": -3.2662334328343237,
        "RAAN(deg)": 164.97561780635877,
        "Satellite Name": "Starlink Shell 1 746",
        "Satellite Number": 746,
        "Semi-Major Axis(m)": 6931778.249405717,
        "Time(s)": 470
    },
    {
        "Altitude(m)": 554541.7591970478,
        "Argument of Periapsis(deg)": 0.01673176701653937,
        "Eccentricity": 0.0,
        "Inclination(deg)": 53.0,
        "Latitude(deg)": -2.186173989737136,
        "Longitude(deg)": 61.36088298045102,
        "Mean Anomaly(deg)": -2.6394022292776786,
        "RAAN(deg)": 164.9750990362813,
        "Satellite Name": "Starlink Shell 1 746",
        "Satellite Number": 746,
        "Semi-Major Axis(m)": 6931778.249405717,
        "Time(s)": 480
    },
    {
        "Altitude(m)": 554465.7152111339,
        "Argument of Periapsis(deg)": 0.017080345496050607,
        "Eccentricity": 0.0,
        "Inclination(deg)": 53.0,
        "Latitude(deg)": -1.6824382094310877,
        "Longitude(deg)": 61.696651263360614,
        "Mean Anomaly(deg)": -2.0125710257210088,
        "RAAN(deg)": 164.97458026620382,
        "Satellite Name": "Starlink Shell 1 746",
        "Satellite Number": 746,
        "Semi-Major Axis(m)": 6931778.249405717,
        "Time(s)": 490
    },
    {
        "Altitude(m)": 554392.4348510208,
        "Argument of Periapsis(deg)": 0.017428923975561842,
        "Eccentricity": 0.0,
        "Inclination(deg)": 53.0,
        "Latitude(deg)": -1.1786163759645707,
        "Longitude(deg)": 62.03223408663572,
        "Mean Anomaly(deg)": -1.3857398221642623,
        "RAAN(deg)": 164.97406149612635,
        "Satellite Name": "Starlink Shell 1 746",
        "Satellite Number": 746,
        "Semi-Major Axis(m)": 6931778.249405717,
        "Time(s)": 500
    },
    {
        "Altitude(m)": 554321.9299487256,
        "Argument of Periapsis(deg)": 0.01777750245507308,
        "Eccentricity": 0.0,
        "Inclination(deg)": 53.0,
        "Latitude(deg)": -0.6747314185064275,
        "Longitude(deg)": 62.36768905961557,
        "Mean Anomaly(deg)": -0.7589086186075156,
        "RAAN(deg)": 164.9735427260489,
        "Satellite Name": "Starlink Shell 1 746",
        "Satellite Number": 746,
        "Semi-Major Axis(m)": 6931778.249405717,
        "Time(s)": 510
    },
    {
        "Altitude(m)": 554254.2109858111,
        "Argument of Periapsis(deg)": 0.018126080934584315,
        "Eccentricity": 0.0,
        "Inclination(deg)": 53.0,
        "Latitude(deg)": -0.17080624268428224,
        "Longitude(deg)": 62.70307373831749,
        "Mean Anomaly(deg)": -0.13207741505081996,
        "RAAN(deg)": 164.9730239559714,
        "Satellite Name": "Starlink Shell 1 746",
        "Satellite Number": 746,
        "Semi-Major Axis(m)": 6931778.249405717,
        "Time(s)": 520
    },
    {
        "Altitude(m)": 554189.2870908808,
        "Argument of Periapsis(deg)": 0.018474659414095554,
        "Eccentricity": 0.0,
        "Inclination(deg)": 53.0,
        "Latitude(deg)": 0.3331362577246006,
        "Longitude(deg)": 63.038446154955224,
        "Mean Anomaly(deg)": 0.49475378850582474,
        "RAAN(deg)": 164.97250518589394,
        "Satellite Name": "Starlink Shell 1 746",
        "Satellite Number": 746,
        "Semi-Major Axis(m)": 6931778.249405717,
        "Time(s)": 530
    },
    {
        "Altitude(m)": 554127.1660378171,
        "Argument of Periapsis(deg)": 0.018823237893606792,
        "Eccentricity": 0.0,
        "Inclination(deg)": 53.0,
        "Latitude(deg)": 0.8370731891134876,
        "Longitude(deg)": 63.373863834579005,
        "Mean Anomaly(deg)": 1.1215849920625711,
        "RAAN(deg)": 164.97198641581647,
        "Satellite Name": "Starlink Shell 1 746",
        "Satellite Number": 746,
        "Semi-Major Axis(m)": 6931778.249405717,
        "Time(s)": 540
    },
    {
        "Altitude(m)": 554067.8542446498,
        "Argument of Periapsis(deg)": 0.019171816373118027,
        "Eccentricity": 0.0,
        "Inclination(deg)": 53.0,
        "Latitude(deg)": 1.340981646369215,
        "Longitude(deg)": 63.70938432459119,
        "Mean Anomaly(deg)": 1.7484161956193434,
        "RAAN(deg)": 164.97146764573898,
        "Satellite Name": "Starlink Shell 1 746",
        "Satellite Number": 746,
        "Semi-Major Axis(m)": 6931778.249405717,
        "Time(s)": 550
    },
    {
        "Altitude(m)": 554011.3567730983,
        "Argument of Periapsis(deg)": 0.019520394852629266,
        "Eccentricity": 0.0,
        "Inclination(deg)": 53.0,
        "Latitude(deg)": 1.844838701185777,
        "Longitude(deg)": 64.04506572427286,
        "Mean Anomaly(deg)": 2.375247399175988,
        "RAAN(deg)": 164.97094887566152,
        "Satellite Name": "Starlink Shell 1 746",
        "Satellite Number": 746,
        "Semi-Major Axis(m)": 6931778.249405717,
        "Time(s)": 560
    }
]